0 DELTA 1 DEB
1 07053U 73086AV  13282.65217661  .00000032  00000-0  53198-3 0  2884
2 07053 102.2186 299.9188 0041869 068.1848 054.3962 12.47848662816468
0 DELTA 1 DEB
1 07053U 73086AV  13287.62283119  .00000057  00000-0  69943-3 0  2902
2 07053 102.2175 304.9791 0041639 058.8723 063.8826 12.47849957817087
0 DELTA 1 DEB
1 07053U 73086AV  13290.01341200  .00000038  00000-0  57053-3 0  2914
2 07053 102.2173 307.4125 0041541 054.3464 003.0534 12.47850626817389
0 DELTA 1 DEB
1 07053U 73086AV  13292.01774674  .00000035  00000-0  54949-3 0  2920
2 07053 102.2173 309.4526 0041495 050.5846 007.0690 12.47851047817639
0 DELTA 1 DEB
1 07053U 73086AV  13294.52602799  .00000032  00000-0  53341-3 0  2939
2 07053 102.2174 312.0055 0041437 045.8583 114.9707 12.47851463817941
